[{"OBJECT_NAME":"NUSAT-41 (C PAYNE-G)","OBJECT_ID":"2023-084N","EPOCH":"2026-03-09T21:55:54.837696","MEAN_MOTION":15.29680045,"ECCENTRICITY":0.00062175,"INCLINATION":97.5351,"RA_OF_ASC_NODE":204.1011,"ARG_OF_PERICENTER":322.2064,"MEAN_ANOMALY":37.8738,"EPHEMERIS_TYPE":0,"CLASSIFICATION_TYPE":"U","NORAD_CAT_ID":56944,"ELEMENT_SET_NO":999,"REV_AT_EPOCH":15260,"BSTAR":0.00059912824,"MEAN_MOTION_DOT":0.0001718,"MEAN_MOTION_DDOT":0},{"OBJECT_NAME":"STARLINK-30517","OBJECT_ID":"2023-153E","EPOCH":"2026-03-09T22:00:01.999584","MEAN_MOTION":15.26715398,"ECCENTRICITY":0.00014756,"INCLINATION":43.0005,"RA_OF_ASC_NODE":65.9087,"ARG_OF_PERICENTER":252.6066,"MEAN_ANOMALY":315.7232,"EPHEMERIS_TYPE":0,"CLASSIFICATION_TYPE":"U","NORAD_CAT_ID":57995,"ELEMENT_SET_NO":999,"REV_AT_EPOCH":578,"BSTAR":0.0015549863,"MEAN_MOTION_DOT":0.00041655,"MEAN_MOTION_DDOT":0}]
